BEGIN IMS2.0
MSG_TYPE DATA
MSG_ID 996991 CTBT_IDC
REF_ID 201604061051bd 
DATA_TYPE RESPONSE:OPERATIONAL IMS2.0
CAL2 KRVT  BHZ      CM3TB   1.21350000E-02   1.000    40.00000 2013/03/17 00:00
 (Note: the group delay is unknown and set to zero)
PAZ2  1 C  7.49628756E+09    0    0.000   5   3 instrument:theoretical   
 -3.70100000E-02 -3.70100000E-02
 -3.70100000E-02  3.70100000E-02
 -1.13097000E+03  0.00000000E+00
 -1.00531000E+03  0.00000000E+00
 -5.02650000E+02  0.00000000E+00
  0.00000000E+00  0.00000000E+00
  0.00000000E+00  0.00000000E+00
  0.00000000E+00  0.00000000E+00
 (The scale factor is computed such that resp(calper) = 1.0)
 (Note: the group delay is unknown and set to zero)
PAZ2  2 C  1.33388815E+04    0    0.000   1   0 instrument:theoretical   
 -1.33388800E+04  0.00000000E+00
 (The scale factor is computed such that resp(calper) = 1.0)
DIG2  3  1.00000000E+00 30000.00000 digitizer:theoretical    
 (Note: the group delay is unknown and set to zero)
FIR2  4   1.00E+00   15    0.000 A  177 digitizer:theoretical    
 -1.50596300E-10 -1.49886400E-10 -1.00311400E-10  1.25946400E-10  7.96045200E-10
  2.42982600E-09  5.98254500E-09  1.31275800E-08  2.66780500E-08  5.11949000E-08
  9.38367800E-08  1.65513100E-07  2.82403400E-07  4.67903700E-07  7.55046400E-07
  1.18942100E-06  1.83258400E-06  2.76589800E-06  4.09467100E-06  5.95238500E-06
  8.50468700E-06  1.19527400E-05  1.65353400E-05  2.25292000E-05  3.02465400E-05
  4.00291200E-05  5.22379300E-05  6.72374600E-05  8.53737600E-05  1.06945800E-04
  1.32169400E-04  1.61134400E-04  1.93754500E-04  2.29711800E-04  2.68398000E-04
  3.08853900E-04  3.49711000E-04  3.89140200E-04  4.24811200E-04  4.53869600E-04
  4.72935700E-04  4.78133000E-04  4.65150600E-04  4.29345400E-04  3.65887400E-04
  2.69950800E-04  1.36951600E-04 -3.71723500E-05 -2.55640700E-04 -5.20481400E-04
 -8.32160200E-04 -1.18920700E-03 -1.58785300E-03 -2.02170100E-03 -2.48144700E-03
 -2.95467700E-03 -3.42576300E-03 -3.87586900E-03 -4.28310100E-03 -4.62279300E-03
 -4.86795500E-03 -4.98987800E-03 -4.95888700E-03 -4.74523300E-03 -4.32010300E-03
 -3.65671700E-03 -2.73147600E-03 -1.52511700E-03 -2.38363900E-05  1.77968200E-03
  3.88536900E-03  6.28506000E-03  8.96201600E-03  1.18907100E-02  1.50369000E-02
  1.83580300E-02  2.18039400E-02  2.53178600E-02  2.88377300E-02  3.22977600E-02
  3.56301600E-02  3.87670400E-02  4.16424200E-02  4.41941700E-02  4.63659400E-02
  4.81089300E-02  4.93834400E-02  5.01601500E-02  5.04210800E-02  5.01601500E-02
  4.93834400E-02  4.81089300E-02  4.63659400E-02  4.41941700E-02  4.16424200E-02
  3.87670400E-02  3.56301600E-02  3.22977600E-02  2.88377300E-02  2.53178600E-02
  2.18039400E-02  1.83580300E-02  1.50369000E-02  1.18907100E-02  8.96201600E-03
  6.28506000E-03  3.88536900E-03  1.77968200E-03 -2.38363900E-05 -1.52511700E-03
 -2.73147600E-03 -3.65671700E-03 -4.32010300E-03 -4.74523300E-03 -4.95888700E-03
 -4.98987800E-03 -4.86795500E-03 -4.62279300E-03 -4.28310100E-03 -3.87586900E-03
 -3.42576300E-03 -2.95467700E-03 -2.48144700E-03 -2.02170100E-03 -1.58785300E-03
 -1.18920700E-03 -8.32160200E-04 -5.20481400E-04 -2.55640700E-04 -3.71723500E-05
  1.36951600E-04  2.69950800E-04  3.65887400E-04  4.29345400E-04  4.65150600E-04
  4.78133000E-04  4.72935700E-04  4.53869600E-04  4.24811200E-04  3.89140200E-04
  3.49711000E-04  3.08853900E-04  2.68398000E-04  2.29711800E-04  1.93754500E-04
  1.61134400E-04  1.32169400E-04  1.06945800E-04  8.53737600E-05  6.72374600E-05
  5.22379300E-05  4.00291200E-05  3.02465400E-05  2.25292000E-05  1.65353400E-05
  1.19527400E-05  8.50468700E-06  5.95238500E-06  4.09467100E-06  2.76589800E-06
  1.83258400E-06  1.18942100E-06  7.55046400E-07  4.67903700E-07  2.82403400E-07
  1.65513100E-07  9.38367800E-08  5.11949000E-08  2.66780500E-08  1.31275800E-08
  5.98254500E-09  2.42982600E-09  7.96045200E-10  1.25946400E-10 -1.00311400E-10
 -1.49886400E-10 -1.50596300E-10                                                
 (The scale factor is set to 1.0)
 (Note: the group delay is unknown and set to zero)
FIR2  5   1.00E+00    5    0.000 A   71 digitizer:theoretical    
 -1.40022900E-08 -1.25505900E-07 -6.07492100E-07 -2.04686600E-06 -5.23635200E-06
 -1.04276600E-05 -1.56651400E-05 -1.46713800E-05  3.86690300E-06  5.25491700E-05
  1.34544700E-04  2.27328500E-04  2.69408800E-04  1.65388700E-04 -1.75420500E-04
 -7.64991200E-04 -1.45211100E-03 -1.88164100E-03 -1.56238300E-03 -7.93060300E-05
  2.58843500E-03  5.77766900E-03  8.07769800E-03  7.66530700E-03  3.06602200E-03
 -5.85956200E-03 -1.71185200E-02 -2.64596600E-02 -2.82353300E-02 -1.71837500E-02
  9.39469800E-03  4.99107300E-02  9.80347800E-02  1.43939900E-01  1.76995800E-01
  1.89034600E-01  1.76995800E-01  1.43939900E-01  9.80347800E-02  4.99107300E-02
  9.39469800E-03 -1.71837500E-02 -2.82353300E-02 -2.64596600E-02 -1.71185200E-02
 -5.85956200E-03  3.06602200E-03  7.66530700E-03  8.07769800E-03  5.77766900E-03
  2.58843500E-03 -7.93060300E-05 -1.56238300E-03 -1.88164100E-03 -1.45211100E-03
 -7.64991200E-04 -1.75420500E-04  1.65388700E-04  2.69408800E-04  2.27328500E-04
  1.34544700E-04  5.25491700E-05  3.86690300E-06 -1.46713800E-05 -1.56651400E-05
 -1.04276600E-05 -5.23635200E-06 -2.04686600E-06 -6.07492100E-07 -1.25505900E-07
 -1.40022900E-08                                                                
 (The scale factor is set to 1.0)
 (Note: the group delay is unknown and set to zero)
FIR2  6   1.00E+00    5    0.000 A  113 digitizer:theoretical    
  3.62415300E-09  1.47021700E-08  2.92464800E-08  1.67581600E-08 -9.45969300E-08
 -4.00529200E-07 -9.37365200E-07 -1.53043500E-06 -1.64599100E-06 -4.07870400E-07
  3.03009400E-06  8.68599200E-06  1.47660300E-05  1.71367500E-05  1.01281400E-05
 -1.07285600E-05 -4.43965100E-05 -8.02979700E-05 -9.76176200E-05 -7.09486900E-05
  1.69209100E-05  1.58507800E-04  3.09493600E-04  3.91280200E-04  3.15588500E-04
  2.91905800E-05 -4.36272400E-04 -9.35417400E-04 -1.22839400E-03 -1.06146900E-03
 -2.93981500E-04  9.75647800E-04  2.35245500E-03  3.21558500E-03  2.93343400E-03
  1.17105100E-03 -1.82954800E-03 -5.14564600E-03 -7.36120800E-03 -7.05635900E-03
 -3.46765500E-03  2.93511300E-03  1.02485700E-02  1.55182800E-02  1.57061600E-02
  8.98786500E-03 -4.08117200E-03 -2.00454000E-02 -3.30349800E-02 -3.62845600E-02
 -2.43088000E-02  4.95879400E-03  4.88452500E-02  1.00014800E-01  1.48075300E-01
  1.82311200E-01  1.94711100E-01  1.82311200E-01  1.48075300E-01  1.00014800E-01
  4.88452500E-02  4.95879400E-03 -2.43088000E-02 -3.62845600E-02 -3.30349800E-02
 -2.00454000E-02 -4.08117200E-03  8.98786500E-03  1.57061600E-02  1.55182800E-02
  1.02485700E-02  2.93511300E-03 -3.46765500E-03 -7.05635900E-03 -7.36120800E-03
 -5.14564600E-03 -1.82954800E-03  1.17105100E-03  2.93343400E-03  3.21558500E-03
  2.35245500E-03  9.75647800E-04 -2.93981500E-04 -1.06146900E-03 -1.22839400E-03
 -9.35417400E-04 -4.36272400E-04  2.91905800E-05  3.15588500E-04  3.91280200E-04
  3.09493600E-04  1.58507800E-04  1.69209100E-05 -7.09486900E-05 -9.76176200E-05
 -8.02979700E-05 -4.43965100E-05 -1.07285600E-05  1.01281400E-05  1.71367500E-05
  1.47660300E-05  8.68599200E-06  3.03009400E-06 -4.07870400E-07 -1.64599100E-06
 -1.53043500E-06 -9.37365200E-07 -4.00529200E-07 -9.45969300E-08  1.67581600E-08
  2.92464800E-08  1.47021700E-08  3.62415300E-09                                
 (The scale factor is set to 1.0)
 (Note: the group delay is unknown and set to zero)
FIR2  7   1.00E+00    2    0.000 A  223 digitizer:theoretical    
 -2.48770400E-10  4.73744000E-09  1.24031900E-08  2.18423000E-09 -2.97350400E-08
 -2.77409800E-08  4.82350100E-08  9.04852000E-08 -4.37720200E-08 -2.02925100E-07
 -2.93251000E-08  3.57677100E-07  2.38075600E-07 -5.05054100E-07 -6.56660600E-07
  5.29513600E-07  1.33302700E-06 -2.35390900E-07 -2.23455800E-06 -6.43188700E-07
  3.17884800E-06  2.39189400E-06 -3.76642600E-06 -5.21313100E-06  3.34387900E-06
  9.06984200E-06 -1.03420300E-06 -1.34947600E-05 -4.12820300E-06  1.74081400E-05
  1.29324700E-05 -1.90111600E-05 -2.55982000E-05  1.58384700E-05  4.12985400E-05
 -5.05136200E-06 -5.76943400E-05 -1.59734300E-05  7.06232000E-05  4.87621200E-05
 -7.41182500E-05 -9.26560100E-05  6.09280600E-05  1.43704200E-04 -2.36571300E-05
 -1.93817700E-04 -4.34606800E-05  2.30528600E-04  1.42299700E-04 -2.37696600E-04
 -2.68419500E-04  1.97420000E-04  4.08986200E-04 -9.32264200E-05 -5.41666700E-04
 -8.56506000E-05  6.35145900E-04  3.39423500E-04 -6.51793800E-04 -6.53162300E-04
  5.52734000E-04  9.93533400E-04 -3.05133000E-04 -1.30802000E-03 -1.08986700E-04
  1.52764200E-03  6.83646100E-04 -1.57380800E-03 -1.38119000E-03  1.36931600E-03
  2.12784100E-03 -8.52739100E-04 -2.81432600E-03 -5.43598100E-06  3.30292600E-03
  1.18723500E-03 -3.44149300E-03 -2.61501800E-03  3.08386100E-03  4.14554100E-03
 -2.11493300E-03 -5.57266900E-03  4.77543200E-04  6.64017100E-03  1.80253800E-03
 -7.06464000E-03 -4.59738100E-03  6.56694000E-03  7.66690400E-03 -4.90895000E-03
 -1.06602900E-02  1.93106400E-03  1.31288800E-02  2.41487100E-03 -1.45475800E-02
 -8.04247500E-03  1.43372800E-02  1.47220600E-02 -1.18735900E-02 -2.20889500E-02
  6.45106000E-03  2.96694000E-02  2.87171900E-03 -3.69221900E-02 -1.77763500E-02
  4.32915100E-02  4.24836100E-02 -4.82648500E-02 -9.28086900E-02  5.14285800E-02
  3.13777400E-01  4.47485800E-01  3.13777400E-01  5.14285800E-02 -9.28086900E-02
 -4.82648500E-02  4.24836100E-02  4.32915100E-02 -1.77763500E-02 -3.69221900E-02
  2.87171900E-03  2.96694000E-02  6.45106000E-03 -2.20889500E-02 -1.18735900E-02
  1.47220600E-02  1.43372800E-02 -8.04247500E-03 -1.45475800E-02  2.41487100E-03
  1.31288800E-02  1.93106400E-03 -1.06602900E-02 -4.90895000E-03  7.66690400E-03
  6.56694000E-03 -4.59738100E-03 -7.06464000E-03  1.80253800E-03  6.64017100E-03
  4.77543200E-04 -5.57266900E-03 -2.11493300E-03  4.14554100E-03  3.08386100E-03
 -2.61501800E-03 -3.44149300E-03  1.18723500E-03  3.30292600E-03 -5.43598100E-06
 -2.81432600E-03 -8.52739100E-04  2.12784100E-03  1.36931600E-03 -1.38119000E-03
 -1.57380800E-03  6.83646100E-04  1.52764200E-03 -1.08986700E-04 -1.30802000E-03
 -3.05133000E-04  9.93533400E-04  5.52734000E-04 -6.53162300E-04 -6.51793800E-04
  3.39423500E-04  6.35145900E-04 -8.56506000E-05 -5.41666700E-04 -9.32264200E-05
  4.08986200E-04  1.97420000E-04 -2.68419500E-04 -2.37696600E-04  1.42299700E-04
  2.30528600E-04 -4.34606800E-05 -1.93817700E-04 -2.36571300E-05  1.43704200E-04
  6.09280600E-05 -9.26560100E-05 -7.41182500E-05  4.87621200E-05  7.06232000E-05
 -1.59734300E-05 -5.76943400E-05 -5.05136200E-06  4.12985400E-05  1.58384700E-05
 -2.55982000E-05 -1.90111600E-05  1.29324700E-05  1.74081400E-05 -4.12820300E-06
 -1.34947600E-05 -1.03420300E-06  9.06984200E-06  3.34387900E-06 -5.21313100E-06
 -3.76642600E-06  2.39189400E-06  3.17884800E-06 -6.43188700E-07 -2.23455800E-06
 -2.35390900E-07  1.33302700E-06  5.29513600E-07 -6.56660600E-07 -5.05054100E-07
  2.38075600E-07  3.57677100E-07 -2.93251000E-08 -2.02925100E-07 -4.37720200E-08
  9.04852000E-08  4.82350100E-08 -2.77409800E-08 -2.97350400E-08  2.18423000E-09
  1.24031900E-08  4.73744000E-09 -2.48770400E-10                                
 (The scale factor is set to 1.0)
CAL2 KRVT  BH1      CM3TB   1.20010000E-02   1.000    40.00000 2013/03/17 00:00
 (Note: the group delay is unknown and set to zero)
PAZ2  1 C  7.57998913E+09    0    0.000   5   3 instrument:theoretical   
 -3.70100000E-02 -3.70100000E-02
 -3.70100000E-02  3.70100000E-02
 -1.13097000E+03  0.00000000E+00
 -1.00531000E+03  0.00000000E+00
 -5.02650000E+02  0.00000000E+00
  0.00000000E+00  0.00000000E+00
  0.00000000E+00  0.00000000E+00
  0.00000000E+00  0.00000000E+00
 (The scale factor is computed such that resp(calper) = 1.0)
 (Note: the group delay is unknown and set to zero)
PAZ2  2 C  1.33388815E+04    0    0.000   1   0 instrument:theoretical   
 -1.33388800E+04  0.00000000E+00
 (The scale factor is computed such that resp(calper) = 1.0)
DIG2  3  1.00000000E+00 30000.00000 digitizer:theoretical    
 (Note: the group delay is unknown and set to zero)
FIR2  4   1.00E+00   15    0.000 A  177 digitizer:theoretical    
 -1.50596300E-10 -1.49886400E-10 -1.00311400E-10  1.25946400E-10  7.96045200E-10
  2.42982600E-09  5.98254500E-09  1.31275800E-08  2.66780500E-08  5.11949000E-08
  9.38367800E-08  1.65513100E-07  2.82403400E-07  4.67903700E-07  7.55046400E-07
  1.18942100E-06  1.83258400E-06  2.76589800E-06  4.09467100E-06  5.95238500E-06
  8.50468700E-06  1.19527400E-05  1.65353400E-05  2.25292000E-05  3.02465400E-05
  4.00291200E-05  5.22379300E-05  6.72374600E-05  8.53737600E-05  1.06945800E-04
  1.32169400E-04  1.61134400E-04  1.93754500E-04  2.29711800E-04  2.68398000E-04
  3.08853900E-04  3.49711000E-04  3.89140200E-04  4.24811200E-04  4.53869600E-04
  4.72935700E-04  4.78133000E-04  4.65150600E-04  4.29345400E-04  3.65887400E-04
  2.69950800E-04  1.36951600E-04 -3.71723500E-05 -2.55640700E-04 -5.20481400E-04
 -8.32160200E-04 -1.18920700E-03 -1.58785300E-03 -2.02170100E-03 -2.48144700E-03
 -2.95467700E-03 -3.42576300E-03 -3.87586900E-03 -4.28310100E-03 -4.62279300E-03
 -4.86795500E-03 -4.98987800E-03 -4.95888700E-03 -4.74523300E-03 -4.32010300E-03
 -3.65671700E-03 -2.73147600E-03 -1.52511700E-03 -2.38363900E-05  1.77968200E-03
  3.88536900E-03  6.28506000E-03  8.96201600E-03  1.18907100E-02  1.50369000E-02
  1.83580300E-02  2.18039400E-02  2.53178600E-02  2.88377300E-02  3.22977600E-02
  3.56301600E-02  3.87670400E-02  4.16424200E-02  4.41941700E-02  4.63659400E-02
  4.81089300E-02  4.93834400E-02  5.01601500E-02  5.04210800E-02  5.01601500E-02
  4.93834400E-02  4.81089300E-02  4.63659400E-02  4.41941700E-02  4.16424200E-02
  3.87670400E-02  3.56301600E-02  3.22977600E-02  2.88377300E-02  2.53178600E-02
  2.18039400E-02  1.83580300E-02  1.50369000E-02  1.18907100E-02  8.96201600E-03
  6.28506000E-03  3.88536900E-03  1.77968200E-03 -2.38363900E-05 -1.52511700E-03
 -2.73147600E-03 -3.65671700E-03 -4.32010300E-03 -4.74523300E-03 -4.95888700E-03
 -4.98987800E-03 -4.86795500E-03 -4.62279300E-03 -4.28310100E-03 -3.87586900E-03
 -3.42576300E-03 -2.95467700E-03 -2.48144700E-03 -2.02170100E-03 -1.58785300E-03
 -1.18920700E-03 -8.32160200E-04 -5.20481400E-04 -2.55640700E-04 -3.71723500E-05
  1.36951600E-04  2.69950800E-04  3.65887400E-04  4.29345400E-04  4.65150600E-04
  4.78133000E-04  4.72935700E-04  4.53869600E-04  4.24811200E-04  3.89140200E-04
  3.49711000E-04  3.08853900E-04  2.68398000E-04  2.29711800E-04  1.93754500E-04
  1.61134400E-04  1.32169400E-04  1.06945800E-04  8.53737600E-05  6.72374600E-05
  5.22379300E-05  4.00291200E-05  3.02465400E-05  2.25292000E-05  1.65353400E-05
  1.19527400E-05  8.50468700E-06  5.95238500E-06  4.09467100E-06  2.76589800E-06
  1.83258400E-06  1.18942100E-06  7.55046400E-07  4.67903700E-07  2.82403400E-07
  1.65513100E-07  9.38367800E-08  5.11949000E-08  2.66780500E-08  1.31275800E-08
  5.98254500E-09  2.42982600E-09  7.96045200E-10  1.25946400E-10 -1.00311400E-10
 -1.49886400E-10 -1.50596300E-10                                                
 (The scale factor is set to 1.0)
 (Note: the group delay is unknown and set to zero)
FIR2  5   1.00E+00    5    0.000 A   71 digitizer:theoretical    
 -1.40022900E-08 -1.25505900E-07 -6.07492100E-07 -2.04686600E-06 -5.23635200E-06
 -1.04276600E-05 -1.56651400E-05 -1.46713800E-05  3.86690300E-06  5.25491700E-05
  1.34544700E-04  2.27328500E-04  2.69408800E-04  1.65388700E-04 -1.75420500E-04
 -7.64991200E-04 -1.45211100E-03 -1.88164100E-03 -1.56238300E-03 -7.93060300E-05
  2.58843500E-03  5.77766900E-03  8.07769800E-03  7.66530700E-03  3.06602200E-03
 -5.85956200E-03 -1.71185200E-02 -2.64596600E-02 -2.82353300E-02 -1.71837500E-02
  9.39469800E-03  4.99107300E-02  9.80347800E-02  1.43939900E-01  1.76995800E-01
  1.89034600E-01  1.76995800E-01  1.43939900E-01  9.80347800E-02  4.99107300E-02
  9.39469800E-03 -1.71837500E-02 -2.82353300E-02 -2.64596600E-02 -1.71185200E-02
 -5.85956200E-03  3.06602200E-03  7.66530700E-03  8.07769800E-03  5.77766900E-03
  2.58843500E-03 -7.93060300E-05 -1.56238300E-03 -1.88164100E-03 -1.45211100E-03
 -7.64991200E-04 -1.75420500E-04  1.65388700E-04  2.69408800E-04  2.27328500E-04
  1.34544700E-04  5.25491700E-05  3.86690300E-06 -1.46713800E-05 -1.56651400E-05
 -1.04276600E-05 -5.23635200E-06 -2.04686600E-06 -6.07492100E-07 -1.25505900E-07
 -1.40022900E-08                                                                
 (The scale factor is set to 1.0)
 (Note: the group delay is unknown and set to zero)
FIR2  6   1.00E+00    5    0.000 A  113 digitizer:theoretical    
  3.62415300E-09  1.47021700E-08  2.92464800E-08  1.67581600E-08 -9.45969300E-08
 -4.00529200E-07 -9.37365200E-07 -1.53043500E-06 -1.64599100E-06 -4.07870400E-07
  3.03009400E-06  8.68599200E-06  1.47660300E-05  1.71367500E-05  1.01281400E-05
 -1.07285600E-05 -4.43965100E-05 -8.02979700E-05 -9.76176200E-05 -7.09486900E-05
  1.69209100E-05  1.58507800E-04  3.09493600E-04  3.91280200E-04  3.15588500E-04
  2.91905800E-05 -4.36272400E-04 -9.35417400E-04 -1.22839400E-03 -1.06146900E-03
 -2.93981500E-04  9.75647800E-04  2.35245500E-03  3.21558500E-03  2.93343400E-03
  1.17105100E-03 -1.82954800E-03 -5.14564600E-03 -7.36120800E-03 -7.05635900E-03
 -3.46765500E-03  2.93511300E-03  1.02485700E-02  1.55182800E-02  1.57061600E-02
  8.98786500E-03 -4.08117200E-03 -2.00454000E-02 -3.30349800E-02 -3.62845600E-02
 -2.43088000E-02  4.95879400E-03  4.88452500E-02  1.00014800E-01  1.48075300E-01
  1.82311200E-01  1.94711100E-01  1.82311200E-01  1.48075300E-01  1.00014800E-01
  4.88452500E-02  4.95879400E-03 -2.43088000E-02 -3.62845600E-02 -3.30349800E-02
 -2.00454000E-02 -4.08117200E-03  8.98786500E-03  1.57061600E-02  1.55182800E-02
  1.02485700E-02  2.93511300E-03 -3.46765500E-03 -7.05635900E-03 -7.36120800E-03
 -5.14564600E-03 -1.82954800E-03  1.17105100E-03  2.93343400E-03  3.21558500E-03
  2.35245500E-03  9.75647800E-04 -2.93981500E-04 -1.06146900E-03 -1.22839400E-03
 -9.35417400E-04 -4.36272400E-04  2.91905800E-05  3.15588500E-04  3.91280200E-04
  3.09493600E-04  1.58507800E-04  1.69209100E-05 -7.09486900E-05 -9.76176200E-05
 -8.02979700E-05 -4.43965100E-05 -1.07285600E-05  1.01281400E-05  1.71367500E-05
  1.47660300E-05  8.68599200E-06  3.03009400E-06 -4.07870400E-07 -1.64599100E-06
 -1.53043500E-06 -9.37365200E-07 -4.00529200E-07 -9.45969300E-08  1.67581600E-08
  2.92464800E-08  1.47021700E-08  3.62415300E-09                                
 (The scale factor is set to 1.0)
 (Note: the group delay is unknown and set to zero)
FIR2  7   1.00E+00    2    0.000 A  223 digitizer:theoretical    
 -2.48770400E-10  4.73744000E-09  1.24031900E-08  2.18423000E-09 -2.97350400E-08
 -2.77409800E-08  4.82350100E-08  9.04852000E-08 -4.37720200E-08 -2.02925100E-07
 -2.93251000E-08  3.57677100E-07  2.38075600E-07 -5.05054100E-07 -6.56660600E-07
  5.29513600E-07  1.33302700E-06 -2.35390900E-07 -2.23455800E-06 -6.43188700E-07
  3.17884800E-06  2.39189400E-06 -3.76642600E-06 -5.21313100E-06  3.34387900E-06
  9.06984200E-06 -1.03420300E-06 -1.34947600E-05 -4.12820300E-06  1.74081400E-05
  1.29324700E-05 -1.90111600E-05 -2.55982000E-05  1.58384700E-05  4.12985400E-05
 -5.05136200E-06 -5.76943400E-05 -1.59734300E-05  7.06232000E-05  4.87621200E-05
 -7.41182500E-05 -9.26560100E-05  6.09280600E-05  1.43704200E-04 -2.36571300E-05
 -1.93817700E-04 -4.34606800E-05  2.30528600E-04  1.42299700E-04 -2.37696600E-04
 -2.68419500E-04  1.97420000E-04  4.08986200E-04 -9.32264200E-05 -5.41666700E-04
 -8.56506000E-05  6.35145900E-04  3.39423500E-04 -6.51793800E-04 -6.53162300E-04
  5.52734000E-04  9.93533400E-04 -3.05133000E-04 -1.30802000E-03 -1.08986700E-04
  1.52764200E-03  6.83646100E-04 -1.57380800E-03 -1.38119000E-03  1.36931600E-03
  2.12784100E-03 -8.52739100E-04 -2.81432600E-03 -5.43598100E-06  3.30292600E-03
  1.18723500E-03 -3.44149300E-03 -2.61501800E-03  3.08386100E-03  4.14554100E-03
 -2.11493300E-03 -5.57266900E-03  4.77543200E-04  6.64017100E-03  1.80253800E-03
